*******************************************************************************
Ephemeris / WWW_USER Fri Mar  7 11:25:54 2025 Pasadena, USA      / Horizons    
*******************************************************************************
Target body name: (2018 UG3)                      {source: JPL#15}
Center body name: Earth (399)                     {source: DE441}
Center-site name: Mauna Kea
*******************************************************************************
Start time      : A.D. 2018-Nov-30 03:51:00.0000 UT      
Stop  time      : A.D. 2018-Nov-30 16:29:00.0000 UT      
Step-size       : 1 minutes
*******************************************************************************
Target pole/equ : undefined
Target radii    : undefined                                                    
Center geodetic : 204.5278, 19.8260847, 4.21024   {E-lon(deg),Lat(deg),Alt(km)}
Center cylindric: 204.5278, 6006.35451, 2151.0229 {E-lon(deg),Dxy(km),Dz(km)}
Center pole/equ : ITRF93                          {East-longitude positive}
Center radii    : 6378.137, 6378.137, 6356.752 km {Equator_a, b, pole_c}       
Target primary  : Sun
Vis. interferer : MOON (R_eq= 1737.400) km        {source: DE441}
Rel. light bend : Sun                             {source: DE441}
Rel. lght bnd GM: 1.3271E+11 km^3/s^2                                          
Small-body perts: Yes                             {source: SB441-N16}
Atmos refraction: NO (AIRLESS)
RA format       : HMS
Time format     : CAL 
Calendar mode   : Mixed Julian/Gregorian
RTS-only print  : NO       
EOP file        : eop.250306.p250602                                           
EOP coverage    : DATA-BASED 1962-JAN-20 TO 2025-MAR-06. PREDICTS-> 2025-JUN-01
Units conversion: 1 au= 149597870.700 km, c= 299792.458 km/s, 1 day= 86400.0 s 
Table cut-offs 1: Elevation (-90.0deg=NO ),Airmass (>38.000=NO), Daylight (YES)
Table cut-offs 2: Solar elongation (  0.0,180.0=NO ),Local Hour Angle( 0.0=NO )
Table cut-offs 3: RA/DEC angular rate (     0.0=NO )                           
*******************************************************************************
Initial IAU76/J2000 heliocentric ecliptic osculating elements (au, days, deg.):
  EPOCH=  2458429.5 ! 2018-Nov-07.00 (TDB)         Residual RMS= .46194        
   EC= .4227384440318329   QR= .9585039390071354   TP= 2458393.2526467689      
   OM= 47.27406359171053   W=  314.2704472892426   IN= 6.159551265235018       
  Equivalent ICRF heliocentric cartesian coordinates (au, au/d):
   X= 7.430529944075828E-01  Y= 6.714692173902916E-01  Z= 2.851295671149762E-01
  VX=-1.040372162305418E-02 VY= 1.447630012002514E-02 VZ= 8.505235531163944E-03
Asteroid physical parameters (km, seconds, rotational period in hours):        
   GM= n.a.                RAD= n.a.               ROTPER= n.a.                
   H= 24.5                 G= .150                 B-V= n.a.                   
                           ALBEDO= n.a.            STYP= n.a.                  
*******************************************************************************
 Date__(UT)__HR:MN     R.A._________(ICRF)_________DEC
******************************************************
$$SOE
 2018-Nov-30 03:51 C   03 40 14.471979 +33 26 34.69914
 2018-Nov-30 03:52 C   03 40 14.491865 +33 26 35.28679
 2018-Nov-30 03:53 C   03 40 14.511680 +33 26 35.87434
 2018-Nov-30 03:54 C   03 40 14.531424 +33 26 36.46179
 2018-Nov-30 03:55 C   03 40 14.551096 +33 26 37.04914
 2018-Nov-30 03:56 C   03 40 14.570698 +33 26 37.63639
 2018-Nov-30 03:57 C   03 40 14.590228 +33 26 38.22354
 2018-Nov-30 03:58 C   03 40 14.609687 +33 26 38.81058
 2018-Nov-30 03:59 C   03 40 14.629075 +33 26 39.39750
 2018-Nov-30 04:00 C   03 40 14.648392 +33 26 39.98432
 2018-Nov-30 04:01 C   03 40 14.667639 +33 26 40.57103
 2018-Nov-30 04:02 C   03 40 14.686814 +33 26 41.15761
 2018-Nov-30 04:03 C   03 40 14.705919 +33 26 41.74409
 2018-Nov-30 04:04 C   03 40 14.724952 +33 26 42.33044
 2018-Nov-30 04:05 C   03 40 14.743915 +33 26 42.91667
 2018-Nov-30 04:06 N   03 40 14.762808 +33 26 43.50277
 2018-Nov-30 04:07 N   03 40 14.781630 +33 26 44.08875
 2018-Nov-30 04:08 N   03 40 14.800381 +33 26 44.67460
 2018-Nov-30 04:09 N   03 40 14.819062 +33 26 45.26032
 2018-Nov-30 04:10 N   03 40 14.837672 +33 26 45.84591
 2018-Nov-30 04:11 N   03 40 14.856213 +33 26 46.43137
 2018-Nov-30 04:12 N   03 40 14.874682 +33 26 47.01668
 2018-Nov-30 04:13 N   03 40 14.893082 +33 26 47.60186
 2018-Nov-30 04:14 N   03 40 14.911411 +33 26 48.18690
 2018-Nov-30 04:15 N   03 40 14.929671 +33 26 48.77179
 2018-Nov-30 04:16 N   03 40 14.947860 +33 26 49.35654
 2018-Nov-30 04:17 N   03 40 14.965979 +33 26 49.94114
 2018-Nov-30 04:18 N   03 40 14.984029 +33 26 50.52559
 2018-Nov-30 04:19 N   03 40 15.002009 +33 26 51.10990
 2018-Nov-30 04:20 N   03 40 15.019919 +33 26 51.69404
 2018-Nov-30 04:21 N   03 40 15.037759 +33 26 52.27803
 2018-Nov-30 04:22 N   03 40 15.055530 +33 26 52.86187
 2018-Nov-30 04:23 N   03 40 15.073231 +33 26 53.44554
 2018-Nov-30 04:24 N   03 40 15.090863 +33 26 54.02905
 2018-Nov-30 04:25 N   03 40 15.108425 +33 26 54.61240
 2018-Nov-30 04:26 N   03 40 15.125918 +33 26 55.19559
 2018-Nov-30 04:27 N   03 40 15.143342 +33 26 55.77860
 2018-Nov-30 04:28 N   03 40 15.160697 +33 26 56.36144
 2018-Nov-30 04:29 N   03 40 15.177983 +33 26 56.94411
 2018-Nov-30 04:30 N   03 40 15.195200 +33 26 57.52661
 2018-Nov-30 04:31 N   03 40 15.212349 +33 26 58.10893
 2018-Nov-30 04:32 N   03 40 15.229428 +33 26 58.69107
 2018-Nov-30 04:33 A   03 40 15.246439 +33 26 59.27303
 2018-Nov-30 04:34 A   03 40 15.263381 +33 26 59.85481
 2018-Nov-30 04:35 A   03 40 15.280255 +33 27 00.43641
 2018-Nov-30 04:36 A   03 40 15.297060 +33 27 01.01781
 2018-Nov-30 04:37 A   03 40 15.313798 +33 27 01.59903
 2018-Nov-30 04:38 A   03 40 15.330467 +33 27 02.18006
 2018-Nov-30 04:39 A   03 40 15.347068 +33 27 02.76089
 2018-Nov-30 04:40 A   03 40 15.363601 +33 27 03.34153
 2018-Nov-30 04:41 A   03 40 15.380066 +33 27 03.92197
 2018-Nov-30 04:42 A   03 40 15.396463 +33 27 04.50222
 2018-Nov-30 04:43 A   03 40 15.412793 +33 27 05.08226
 2018-Nov-30 04:44 A   03 40 15.429055 +33 27 05.66210
 2018-Nov-30 04:45 A   03 40 15.445249 +33 27 06.24173
 2018-Nov-30 04:46 A   03 40 15.461377 +33 27 06.82116
 2018-Nov-30 04:47 A   03 40 15.477437 +33 27 07.40038
 2018-Nov-30 04:48 A   03 40 15.493430 +33 27 07.97938
 2018-Nov-30 04:49 A   03 40 15.509356 +33 27 08.55818
 2018-Nov-30 04:50 A   03 40 15.525215 +33 27 09.13675
 2018-Nov-30 04:51 A   03 40 15.541007 +33 27 09.71511
 2018-Nov-30 04:52 A   03 40 15.556733 +33 27 10.29326
 2018-Nov-30 04:53 A   03 40 15.572392 +33 27 10.87118
 2018-Nov-30 04:54 A   03 40 15.587985 +33 27 11.44887
 2018-Nov-30 04:55 A   03 40 15.603511 +33 27 12.02634
 2018-Nov-30 04:56 A   03 40 15.618971 +33 27 12.60359
 2018-Nov-30 04:57 A   03 40 15.634366 +33 27 13.18060
 2018-Nov-30 04:58 A   03 40 15.649694 +33 27 13.75739
 2018-Nov-30 04:59     03 40 15.664956 +33 27 14.33394
 2018-Nov-30 05:00     03 40 15.680153 +33 27 14.91025
 2018-Nov-30 05:01     03 40 15.695284 +33 27 15.48633
 2018-Nov-30 05:02     03 40 15.710350 +33 27 16.06217
 2018-Nov-30 05:03     03 40 15.725350 +33 27 16.63777
 2018-Nov-30 05:04     03 40 15.740285 +33 27 17.21312
 2018-Nov-30 05:05     03 40 15.755155 +33 27 17.78823
 2018-Nov-30 05:06     03 40 15.769961 +33 27 18.36310
 2018-Nov-30 05:07     03 40 15.784701 +33 27 18.93771
 2018-Nov-30 05:08     03 40 15.799377 +33 27 19.51207
 2018-Nov-30 05:09     03 40 15.813988 +33 27 20.08618
 2018-Nov-30 05:10     03 40 15.828535 +33 27 20.66004
 2018-Nov-30 05:11     03 40 15.843018 +33 27 21.23364
 2018-Nov-30 05:12     03 40 15.857437 +33 27 21.80698
 2018-Nov-30 05:13     03 40 15.871791 +33 27 22.38006
 2018-Nov-30 05:14     03 40 15.886082 +33 27 22.95288
 2018-Nov-30 05:15     03 40 15.900310 +33 27 23.52543
 2018-Nov-30 05:16     03 40 15.914473 +33 27 24.09772
 2018-Nov-30 05:17     03 40 15.928574 +33 27 24.66974
 2018-Nov-30 05:18     03 40 15.942611 +33 27 25.24149
 2018-Nov-30 05:19     03 40 15.956585 +33 27 25.81296
 2018-Nov-30 05:20     03 40 15.970496 +33 27 26.38417
 2018-Nov-30 05:21     03 40 15.984345 +33 27 26.95509
 2018-Nov-30 05:22     03 40 15.998131 +33 27 27.52574
 2018-Nov-30 05:23     03 40 16.011854 +33 27 28.09611
 2018-Nov-30 05:24     03 40 16.025515 +33 27 28.66620
 2018-Nov-30 05:25     03 40 16.039114 +33 27 29.23601
 2018-Nov-30 05:26     03 40 16.052651 +33 27 29.80553
 2018-Nov-30 05:27     03 40 16.066127 +33 27 30.37476
 2018-Nov-30 05:28     03 40 16.079540 +33 27 30.94371
 2018-Nov-30 05:29     03 40 16.092892 +33 27 31.51236
 2018-Nov-30 05:30     03 40 16.106183 +33 27 32.08073
 2018-Nov-30 05:31     03 40 16.119412 +33 27 32.64879
 2018-Nov-30 05:32     03 40 16.132581 +33 27 33.21657
 2018-Nov-30 05:33     03 40 16.145688 +33 27 33.78404
 2018-Nov-30 05:34     03 40 16.158735 +33 27 34.35121
 2018-Nov-30 05:35     03 40 16.171722 +33 27 34.91809
 2018-Nov-30 05:36     03 40 16.184648 +33 27 35.48466
 2018-Nov-30 05:37     03 40 16.197514 +33 27 36.05092
 2018-Nov-30 05:38     03 40 16.210320 +33 27 36.61688
 2018-Nov-30 05:39     03 40 16.223066 +33 27 37.18252
 2018-Nov-30 05:40     03 40 16.235752 +33 27 37.74786
 2018-Nov-30 05:41     03 40 16.248379 +33 27 38.31289
 2018-Nov-30 05:42     03 40 16.260947 +33 27 38.87760
 2018-Nov-30 05:43     03 40 16.273455 +33 27 39.44199
 2018-Nov-30 05:44     03 40 16.285905 +33 27 40.00607
 2018-Nov-30 05:45     03 40 16.298295 +33 27 40.56983
 2018-Nov-30 05:46     03 40 16.310628 +33 27 41.13326
 2018-Nov-30 05:47     03 40 16.322901 +33 27 41.69637
 2018-Nov-30 05:48     03 40 16.335117 +33 27 42.25916
 2018-Nov-30 05:49     03 40 16.347275 +33 27 42.82163
 2018-Nov-30 05:50     03 40 16.359374 +33 27 43.38376
 2018-Nov-30 05:51     03 40 16.371416 +33 27 43.94556
 2018-Nov-30 05:52     03 40 16.383401 +33 27 44.50703
 2018-Nov-30 05:53     03 40 16.395328 +33 27 45.06817
